KUIPER-00028            
1 63741U 25088T   26063.36192456  .00003680  00000+0  51058-3 0  9995
2 63741  51.8989 116.6123 0000624  77.0276 283.0756 14.80003574 47277
KUIPER-00029            
1 63742U 25088U   26064.11695008  .00006061  00000+0  75457-3 0  9996
2 63742  51.9007 110.9161 0000707  97.2340 262.8705 14.83615084 46947
KUIPER-00030            
1 63743U 25088V   26063.57949167 -.00001464  00000+0 -16255-3 0  9999
2 63743  51.9000 133.1429 0010913  52.8570 307.3388 14.79931199 46874
KUIPER-00031            
1 63744U 25088W   26063.51778986  .00007427  00000+0  91847-3 0  9996
2 63744  51.8993 118.6945 0002182 127.3613 232.7550 14.83605758 46787
KUIPER-00032            
1 63745U 25088X   26064.11762140  .00018529  00000+0  51098-3 0  9998
2 63745  51.8698  46.3290 0005311  96.3718 263.7874 15.37138758 48841
KUIPER-00033            
1 63746U 25088Y   26063.43425766  .00009242  00000+0  11416-2 0  9994
2 63746  51.9006 149.2249 0000831  43.8687 316.2343 14.83400226 46831
KUIPER-00034            
1 63747U 25088Z   26064.13059050  .00000790  00000+0  12250-3 0  9999
2 63747  51.9008 108.4680 0001809  23.4948 336.6098 14.83542519 47140
KUIPER-00035            
1 63748U 25088AA  26064.00002314  .00022388  00000+0  27317-2 0  9993
2 63748  51.8987 134.7148 0003836  61.6917 116.7656 14.83232963  3080
KUIPER-00037            
1 63749U 25088AB  26064.18457389  .00013009  00000+0  17319-2 0  9990
2 63749  51.8999 132.9840 0000887  54.3505 305.7540 14.79937985 47641
KUIPER-00038            
1 63750U 25088AC  26064.13321068  .00001700  00000+0  25177-3 0  9998
2 63750  51.9030 118.2389 0000648  96.6236 263.4800 14.79956093 46841
KUIPER-00039            
1 64500U 25134A   26063.90331185  .00004398  00000+0  60551-3 0  9990
2 64500  51.8999 254.2578 0001043  63.8492 296.2578 14.79931626 39369
KUIPER-00040            
1 64501U 25134B   26063.82320315  .00009934  00000+0  13272-2 0  9993
2 64501  51.8984 265.7490 0013507 248.7136 111.2384 14.79979044 39199
KUIPER-00041            
1 64502U 25134C   26063.55774350  .00004422  00000+0  62633-3 0  9999
2 64502  51.8986 268.3368 0007155 248.4948 111.5251 14.78704906 39137
KUIPER-00042            
1 64503U 25134D   26063.96096396  .00014528  00000+0  19298-2 0  9998
2 64503  51.8982 262.5029 0007171 264.9825  95.0319 14.79938603 39257
KUIPER-00043            
1 64504U 25134E   26063.54439629  .00005522  00000+0  68702-3 0  9992
2 64504  51.9002 255.9107 0000917 309.3130  50.7753 14.83793091 39311
KUIPER-00044            
1 64505U 25134F   26063.95554362 -.00009166  00000+0 -11752-2 0  9992
2 64505  51.9018 267.5249 0007716 258.1479 101.8618 14.79894757 39185
KUIPER-00046            
1 64506U 25134G   26063.82482427  .00000299  00000+0  68301-4 0  9991
2 64506  51.8983 264.5646 0000856 101.0614 259.0445 14.79921989 39215
